[{"OBJECT_NAME":"IRIDIUM 165","OBJECT_ID":"2018-061D","EPOCH":"2026-03-09T12:28:22.404000","MEAN_MOTION":14.34217296,"ECCENTRICITY":0.00020877,"INCLINATION":86.3917,"RA_OF_ASC_NODE":98.4934,"ARG_OF_PERICENTER":96.9181,"MEAN_ANOMALY":263.2252,"EPHEMERIS_TYPE":0,"CLASSIFICATION_TYPE":"U","NORAD_CAT_ID":43572,"ELEMENT_SET_NO":999,"REV_AT_EPOCH":39910,"BSTAR":7.29473e-7,"MEAN_MOTION_DOT":2.2e-7,"MEAN_MOTION_DDOT":0},{"OBJECT_NAME":"CZ-6A DEB","OBJECT_ID":"2024-140HC","EPOCH":"2026-03-09T13:34:18.145920","MEAN_MOTION":14.40522378,"ECCENTRICITY":0.0061657,"INCLINATION":88.7858,"RA_OF_ASC_NODE":269.2354,"ARG_OF_PERICENTER":323.9769,"MEAN_ANOMALY":35.7283,"EPHEMERIS_TYPE":0,"CLASSIFICATION_TYPE":"U","NORAD_CAT_ID":60825,"ELEMENT_SET_NO":999,"REV_AT_EPOCH":8245,"BSTAR":0.00066531,"MEAN_MOTION_DOT":2.179e-5,"MEAN_MOTION_DDOT":0}]
